[
    {
        "OBJECT_NAME": "COSMOS 2424 [GLONASS-M]",
        "OBJECT_ID": "2006-062C",
        "EPOCH": "2025-11-23T08:59:48.550272",
        "MEAN_MOTION": 2.13122599,
        "ECCENTRICITY": 0.0019382,
        "INCLINATION": 64.6932,
        "RA_OF_ASC_NODE": 201.1466,
        "ARG_OF_PERICENTER": 171.1832,
        "MEAN_ANOMALY": 188.9474,
        "EPHEMERIS_TYPE": 0,
        "CLASSIFICATION_TYPE": "U",
        "NORAD_CAT_ID": 29672,
        "ELEMENT_SET_NO": 999,
        "REV_AT_EPOCH": 14719,
        "BSTAR": 0,
        "MEAN_MOTION_DOT": 6e-07,
        "MEAN_MOTION_DDOT": 0
    },
    {
        "OBJECT_NAME": "COSMOS 2433 [GLONASS-M]",
        "OBJECT_ID": "2007-052A",
        "EPOCH": "2025-11-22T21:52:16.027104",
        "MEAN_MOTION": 2.13104143,
        "ECCENTRICITY": 0.00057488,
        "INCLINATION": 65.6936,
        "RA_OF_ASC_NODE": 322.8722,
        "ARG_OF_PERICENTER": 249.682,
        "MEAN_ANOMALY": 110.2715,
        "EPHEMERIS_TYPE": 0,
        "CLASSIFICATION_TYPE": "U",
        "NORAD_CAT_ID": 32275,
        "ELEMENT_SET_NO": 999,
        "REV_AT_EPOCH": 14066,
        "BSTAR": 0,
        "MEAN_MOTION_DOT": -3.4e-07,
        "MEAN_MOTION_DDOT": 0
    },
    {
        "OBJECT_NAME": "COSMOS 2432 [GLONASS-M]",
        "OBJECT_ID": "2007-052B",
        "EPOCH": "2025-11-24T03:52:49.660032",
        "MEAN_MOTION": 2.13103239,
        "ECCENTRICITY": 0.0011129,
        "INCLINATION": 65.7089,
        "RA_OF_ASC_NODE": 322.954,
        "ARG_OF_PERICENTER": 310.1219,
        "MEAN_ANOMALY": 233.6133,
        "EPHEMERIS_TYPE": 0,
        "CLASSIFICATION_TYPE": "U",
        "NORAD_CAT_ID": 32276,
        "ELEMENT_SET_NO": 999,
        "REV_AT_EPOCH": 14071,
        "BSTAR": 0,
        "MEAN_MOTION_DOT": -2.6e-07,
        "MEAN_MOTION_DDOT": 0
    },
    {
        "OBJECT_NAME": "COSMOS 2431 [GLONASS-M]",
        "OBJECT_ID": "2007-052C",
        "EPOCH": "2025-11-22T22:18:32.524704",
        "MEAN_MOTION": 2.13209141,
        "ECCENTRICITY": 0.00151852,
        "INCLINATION": 65.7066,
        "RA_OF_ASC_NODE": 322.7986,
        "ARG_OF_PERICENTER": 182.0273,
        "MEAN_ANOMALY": 175.3064,
        "EPHEMERIS_TYPE": 0,
        "CLASSIFICATION_TYPE": "U",
        "NORAD_CAT_ID": 32277,
        "ELEMENT_SET_NO": 999,
        "REV_AT_EPOCH": 14081,
        "BSTAR": 0,
        "MEAN_MOTION_DOT": -3.4e-07,
        "MEAN_MOTION_DDOT": 0
    },
    {
        "OBJECT_NAME": "COSMOS 2434 [GLONASS-M]",
        "OBJECT_ID": "2007-065A",
        "EPOCH": "2025-11-24T04:19:12.291168",
        "MEAN_MOTION": 2.13101265,
        "ECCENTRICITY": 0.000414,
        "INCLINATION": 64.3144,
        "RA_OF_ASC_NODE": 198.8299,
        "ARG_OF_PERICENTER": 69.7701,
        "MEAN_ANOMALY": 74.2005,
        "EPHEMERIS_TYPE": 0,
        "CLASSIFICATION_TYPE": "U",
        "NORAD_CAT_ID": 32393,
        "ELEMENT_SET_NO": 999,
        "REV_AT_EPOCH": 13940,
        "BSTAR": 0,
        "MEAN_MOTION_DOT": 6e-07,
        "MEAN_MOTION_DDOT": 0
    },
    {
        "OBJECT_NAME": "COSMOS 2435 [GLONASS-M]",
        "OBJECT_ID": "2007-065B",
        "EPOCH": "2025-11-23T08:08:16.689120",
        "MEAN_MOTION": 2.13115492,
        "ECCENTRICITY": 0.0025156,
        "INCLINATION": 64.3179,
        "RA_OF_ASC_NODE": 198.8533,
        "ARG_OF_PERICENTER": 359.5671,
        "MEAN_ANOMALY": 0.5282,
        "EPHEMERIS_TYPE": 0,
        "CLASSIFICATION_TYPE": "U",
        "NORAD_CAT_ID": 32394,
        "ELEMENT_SET_NO": 999,
        "REV_AT_EPOCH": 13935,
        "BSTAR": 0,
        "MEAN_MOTION_DOT": 6.2e-07,
        "MEAN_MOTION_DDOT": 0
    },
    {
        "OBJECT_NAME": "COSMOS 2436 [GLONASS-M]",
        "OBJECT_ID": "2007-065C",
        "EPOCH": "2025-11-23T14:08:25.315296",
        "MEAN_MOTION": 2.13100063,
        "ECCENTRICITY": 0.0017661,
        "INCLINATION": 64.3231,
        "RA_OF_ASC_NODE": 198.9198,
        "ARG_OF_PERICENTER": 7.913,
        "MEAN_ANOMALY": 175.9605,
        "EPHEMERIS_TYPE": 0,
        "CLASSIFICATION_TYPE": "U",
        "NORAD_CAT_ID": 32395,
        "ELEMENT_SET_NO": 999,
        "REV_AT_EPOCH": 13934,
        "BSTAR": 0,
        "MEAN_MOTION_DOT": 6.1e-07,
        "MEAN_MOTION_DDOT": 0
    },
    {
        "OBJECT_NAME": "COSMOS 2442 [GLONASS-M]",
        "OBJECT_ID": "2008-046A",
        "EPOCH": "2025-11-22T11:27:06.598944",
        "MEAN_MOTION": 2.13108496,
        "ECCENTRICITY": 0.0019643,
        "INCLINATION": 65.5825,
        "RA_OF_ASC_NODE": 321.8413,
        "ARG_OF_PERICENTER": 304.1009,
        "MEAN_ANOMALY": 212.0133,
        "EPHEMERIS_TYPE": 0,
        "CLASSIFICATION_TYPE": "U",
        "NORAD_CAT_ID": 33378,
        "ELEMENT_SET_NO": 999,
        "REV_AT_EPOCH": 13354,
        "BSTAR": 0,
        "MEAN_MOTION_DOT": -3.6e-07,
        "MEAN_MOTION_DDOT": 0
    },
    {
        "OBJECT_NAME": "COSMOS 2443 [GLONASS-M]",
        "OBJECT_ID": "2008-046B",
        "EPOCH": "2025-11-16T11:50:02.690880",
        "MEAN_MOTION": 2.13098392,
        "ECCENTRICITY": 0.0015617,
        "INCLINATION": 65.597,
        "RA_OF_ASC_NODE": 322.1594,
        "ARG_OF_PERICENTER": 190.7517,
        "MEAN_ANOMALY": 130.5891,
        "EPHEMERIS_TYPE": 0,
        "CLASSIFICATION_TYPE": "U",
        "NORAD_CAT_ID": 33379,
        "ELEMENT_SET_NO": 999,
        "REV_AT_EPOCH": 13341,
        "BSTAR": 0,
        "MEAN_MOTION_DOT": -4.4e-07,
        "MEAN_MOTION_DDOT": 0
    },
    {
        "OBJECT_NAME": "COSMOS 2444 [GLONASS-M]",
        "OBJECT_ID": "2008-046C",
        "EPOCH": "2025-11-21T06:08:38.569344",
        "MEAN_MOTION": 2.13112301,
        "ECCENTRICITY": 0.00196983,
        "INCLINATION": 65.6037,
        "RA_OF_ASC_NODE": 322.0478,
        "ARG_OF_PERICENTER": 290.6159,
        "MEAN_ANOMALY": 250.6955,
        "EPHEMERIS_TYPE": 0,
        "CLASSIFICATION_TYPE": "U",
        "NORAD_CAT_ID": 33380,
        "ELEMENT_SET_NO": 999,
        "REV_AT_EPOCH": 13351,
        "BSTAR": 0,
        "MEAN_MOTION_DOT": -4.2e-07,
        "MEAN_MOTION_DDOT": 0
    },
    {
        "OBJECT_NAME": "COSMOS 2447 [GLONASS-M]",
        "OBJECT_ID": "2008-067A",
        "EPOCH": "2025-11-22T19:07:48.993312",
        "MEAN_MOTION": 2.1310759,
        "ECCENTRICITY": 0.00068543,
        "INCLINATION": 64.6949,
        "RA_OF_ASC_NODE": 76.4522,
        "ARG_OF_PERICENTER": 246.8547,
        "MEAN_ANOMALY": 111.4051,
        "EPHEMERIS_TYPE": 0,
        "CLASSIFICATION_TYPE": "U",
        "NORAD_CAT_ID": 33466,
        "ELEMENT_SET_NO": 999,
        "REV_AT_EPOCH": 13156,
        "BSTAR": 0,
        "MEAN_MOTION_DOT": -7e-08,
        "MEAN_MOTION_DDOT": 0
    },
    {
        "OBJECT_NAME": "COSMOS 2449 [GLONASS-M]",
        "OBJECT_ID": "2008-067B",
        "EPOCH": "2025-11-22T21:00:04.981824",
        "MEAN_MOTION": 2.13096877,
        "ECCENTRICITY": 0.0033027,
        "INCLINATION": 64.6838,
        "RA_OF_ASC_NODE": 76.3603,
        "ARG_OF_PERICENTER": 235.525,
        "MEAN_ANOMALY": 124.1628,
        "EPHEMERIS_TYPE": 0,
        "CLASSIFICATION_TYPE": "U",
        "NORAD_CAT_ID": 33467,
        "ELEMENT_SET_NO": 999,
        "REV_AT_EPOCH": 13156,
        "BSTAR": 0,
        "MEAN_MOTION_DOT": -6e-08,
        "MEAN_MOTION_DDOT": 0
    },
    {
        "OBJECT_NAME": "COSMOS 2448 [GLONASS-M]",
        "OBJECT_ID": "2008-067C",
        "EPOCH": "2025-11-21T05:18:57.220704",
        "MEAN_MOTION": 2.13116668,
        "ECCENTRICITY": 0.00032093,
        "INCLINATION": 64.6893,
        "RA_OF_ASC_NODE": 76.4367,
        "ARG_OF_PERICENTER": 201.5906,
        "MEAN_ANOMALY": 158.3877,
        "EPHEMERIS_TYPE": 0,
        "CLASSIFICATION_TYPE": "U",
        "NORAD_CAT_ID": 33468,
        "ELEMENT_SET_NO": 999,
        "REV_AT_EPOCH": 13160,
        "BSTAR": 0,
        "MEAN_MOTION_DOT": -2.1e-07,
        "MEAN_MOTION_DDOT": 0
    },
    {
        "OBJECT_NAME": "COSMOS 2456 [GLONASS-M]",
        "OBJECT_ID": "2009-070A",
        "EPOCH": "2025-11-23T19:22:31.298880",
        "MEAN_MOTION": 2.13103579,
        "ECCENTRICITY": 0.000243,
        "INCLINATION": 64.8897,
        "RA_OF_ASC_NODE": 77.9853,
        "ARG_OF_PERICENTER": 299.8233,
        "MEAN_ANOMALY": 75.1956,
        "EPHEMERIS_TYPE": 0,
        "CLASSIFICATION_TYPE": "U",
        "NORAD_CAT_ID": 36111,
        "ELEMENT_SET_NO": 999,
        "REV_AT_EPOCH": 12405,
        "BSTAR": 0,
        "MEAN_MOTION_DOT": 4e-08,
        "MEAN_MOTION_DDOT": 0
    },
    {
        "OBJECT_NAME": "COSMOS 2457 [GLONASS-M]",
        "OBJECT_ID": "2009-070B",
        "EPOCH": "2025-11-23T16:18:32.567040",
        "MEAN_MOTION": 2.13100966,
        "ECCENTRICITY": 0.0005222,
        "INCLINATION": 64.8751,
        "RA_OF_ASC_NODE": 77.8377,
        "ARG_OF_PERICENTER": 152.8942,
        "MEAN_ANOMALY": 253.4315,
        "EPHEMERIS_TYPE": 0,
        "CLASSIFICATION_TYPE": "U",
        "NORAD_CAT_ID": 36112,
        "ELEMENT_SET_NO": 999,
        "REV_AT_EPOCH": 12405,
        "BSTAR": 0,
        "MEAN_MOTION_DOT": 3e-08,
        "MEAN_MOTION_DDOT": 0
    },
    {
        "OBJECT_NAME": "COSMOS 2458 [GLONASS-M]",
        "OBJECT_ID": "2009-070C",
        "EPOCH": "2025-11-23T18:21:04.710240",
        "MEAN_MOTION": 2.13082554,
        "ECCENTRICITY": 0.0004255,
        "INCLINATION": 64.8805,
        "RA_OF_ASC_NODE": 77.8832,
        "ARG_OF_PERICENTER": 314.0918,
        "MEAN_ANOMALY": 42.6718,
        "EPHEMERIS_TYPE": 0,
        "CLASSIFICATION_TYPE": "U",
        "NORAD_CAT_ID": 36113,
        "ELEMENT_SET_NO": 999,
        "REV_AT_EPOCH": 12407,
        "BSTAR": 0,
        "MEAN_MOTION_DOT": 4e-08,
        "MEAN_MOTION_DDOT": 0
    }
]